[{"OBJECT_NAME":"LAPAN-A3","OBJECT_ID":"2016-040E","EPOCH":"2026-03-09T23:01:57.724896","MEAN_MOTION":15.3238951,"ECCENTRICITY":0.00109839,"INCLINATION":97.1488,"RA_OF_ASC_NODE":68.4254,"ARG_OF_PERICENTER":22.062,"MEAN_ANOMALY":338.1093,"EPHEMERIS_TYPE":0,"CLASSIFICATION_TYPE":"U","NORAD_CAT_ID":41603,"ELEMENT_SET_NO":999,"REV_AT_EPOCH":53961,"BSTAR":0.00017567445,"MEAN_MOTION_DOT":5.428e-5,"MEAN_MOTION_DDOT":0},{"OBJECT_NAME":"STARLINK-35416","OBJECT_ID":"2025-245Q","EPOCH":"2026-03-09T20:48:09.306432","MEAN_MOTION":15.30244737,"ECCENTRICITY":0.00016047,"INCLINATION":53.1591,"RA_OF_ASC_NODE":283.0705,"ARG_OF_PERICENTER":57.4199,"MEAN_ANOMALY":302.6957,"EPHEMERIS_TYPE":0,"CLASSIFICATION_TYPE":"U","NORAD_CAT_ID":66248,"ELEMENT_SET_NO":999,"REV_AT_EPOCH":2122,"BSTAR":0.001032988,"MEAN_MOTION_DOT":0.00030403,"MEAN_MOTION_DDOT":0}]
